KUIPER-00027            
1 63740U 25088S   25229.25002315 -.00009559  00000+0 -36045-3 0  9991
2 63740  51.8800 285.4487 0001980 181.0992   9.9673 15.25393415 17257
KUIPER-00028            
1 63741U 25088T   25228.91670139 -.00972395  00000+0 -37704-1 0  9997
2 63741  51.8755 286.5331 0003023 114.2918 253.8630 15.28234685 17623
KUIPER-00029            
1 63742U 25088U   25228.91670139 -.00829295  00000+0 -26885-1 0  9996
2 63742  51.8721 286.9553 0003545 132.7012  39.1501 15.33952599 17142
KUIPER-00030            
1 63743U 25088V   25229.25002315 -.00030086  00000+0 -33047-2 0  9991
2 63743  51.8965 294.6419 0017709 125.2745 275.8012 14.86999517 17354
KUIPER-00031            
1 63744U 25088W   25229.25002315 -.00772689  00000+0 -37217-1 0  9996
2 63744  51.8774 285.9860 0003883 131.0618 160.6187 15.20846062 17188
KUIPER-00032            
1 63745U 25088X   25228.57452923  .00012691  00000+0  45387-3 0  9992
2 63745  51.8731 289.4675 0004765 102.1079 258.0439 15.29143946 18087
KUIPER-00033            
1 63746U 25088Y   25229.21345631  .00007035  00000+0  95087-3 0  9990
2 63746  51.8990 310.7849 0002916 213.3640 146.7138 14.79935066 17322
KUIPER-00034            
1 63747U 25088Z   25229.14341532 -.00007539  00000+0 -18996-3 0  9994
2 63747  51.8715 285.1008 0000803 101.0620 259.0458 15.37748050 17350
